
# Worst residual: 9.88 km
# MJD 59296.000000 (2021 Mar 23  0:00)
UR29394 = C6ZAK42 = C4CJND2 = bit from 1969-046F
1 79960U 23999ZZK 21082.49919926  .00000000  00000-0  00000-0 0 20347
2 79960 018.6162 337.4402 8090184 280.4670 013.8202 00.46178224    07

# Worst residual: 2.88 km
# MJD 59297.000000 (2021 Mar 24  0:00)
UR29394 = C6ZAK42 = C4CJND2 = bit from 1969-046F
1 79960U 23999ZZK 21083.49919926  .00000000  00000-0  00000-0 0 20348
2 79960 018.6119 337.4477 8090078 280.4781 180.0817 00.46186892    05

# Worst residual: 7.47 km
# MJD 59298.000000 (2021 Mar 25  0:00)
UR29394 = C6ZAK42 = C4CJND2 = bit from 1969-046F
1 79960U 23999ZZK 21084.49919926  .00000000  00000-0  00000-0 0 20349
2 79960 018.6056 337.4828 8085931 280.4561 346.2632 00.46188878    00

# Worst residual: 4.16 km
# MJD 59299.000000 (2021 Mar 26  0:00)
UR29394 = C6ZAK42 = C4CJND2 = bit from 1969-046F
1 79960U 23999ZZK 21085.49919926  .00000000  00000-0  00000-0 0 20340
2 79960 018.6004 337.4688 8088808 280.4813 152.4747 00.46187930    05

# Worst residual: 12.12 km
# MJD 59300.000000 (2021 Mar 27  0:00)
UR29394 = C6ZAK42 = C4CJND2 = bit from 1969-046F
1 79960U 23999ZZK 21086.49919926  .00000000  00000-0  00000-0 0 20341
2 79960 018.5985 337.4677 8087825 280.4987 318.7023 00.46190476    03

# Worst residual: 6.68 km
# MJD 59301.000000 (2021 Mar 28  0:00)
UR29394 = C6ZAK42 = C4CJND2 = bit from 1969-046F
1 79960U 23999ZZK 21087.49919926  .00000000  00000-0  00000-0 0 20342
2 79960 018.5942 337.4562 8090699 280.5267 124.8853 00.46181740    05

# Worst residual: 2.02 km
# MJD 59302.000000 (2021 Mar 29  0:00)
UR29394 = C6ZAK42 = C4CJND2 = bit from 1969-046F
1 79960U 23999ZZK 21088.49919926  .00000000  00000-0  00000-0 0 20343
2 79960 018.5898 337.4818 8091096 280.5278 291.0697 00.46178329    05

# Worst residual: 8.38 km
# MJD 59303.000000 (2021 Mar 30  0:00)
UR29394 = C6ZAK42 = C4CJND2 = bit from 1969-046F
1 79960U 23999ZZK 21089.49919926  .00000000  00000-0  00000-0 0 20344
2 79960 018.5895 337.4562 8092229 280.5827 097.2698 00.46182949    07

# Worst residual: 9.22 km
# MJD 59304.000000 (2021 Mar 31  0:00)
UR29394 = C6ZAK42 = C4CJND2 = bit from 1969-046F
1 79960U 23999ZZK 21090.49919926  .00000000  00000-0  00000-0 0 20346
2 79960 018.5846 337.5051 8091166 280.5633 263.4165 00.46166873    05

# Worst residual: 6.45 km
# MJD 59305.000000 (2021 Apr  1  0:00)
UR29394 = C6ZAK42 = C4CJND2 = bit from 1969-046F
1 79960U 23999ZZK 21091.49919926  .00000000  00000-0  00000-0 0 20347
2 79960 018.5842 337.4882 8091913 280.6200 069.6036 00.46173439    02

# Worst residual: 4.14 km
# MJD 59306.000000 (2021 Apr  2  0:00)
UR29394 = C6ZAK42 = C4CJND2 = bit from 1969-046F
1 79960U 23999ZZK 21092.49919926  .00000000  00000-0  00000-0 0 20348
2 79960 018.5808 337.5087 8091614 280.6198 235.7972 00.46172141    00

# Worst residual: 11.95 km
# MJD 59307.000000 (2021 Apr  3  0:00)
UR29394 = C6ZAK42 = C4CJND2 = bit from 1969-046F
1 79960U 23999ZZK 21093.49919926  .00000000  00000-0  00000-0 0 20349
2 79960 018.5814 337.4990 8092212 280.6590 041.9870 00.46163073    08

# Worst residual: 1.62 km
# MJD 59308.000000 (2021 Apr  4  0:00)
UR29394 = C6ZAK42 = C4CJND2 = bit from 1969-046F
1 79960U 23999ZZK 21094.49919926  .00000000  00000-0  00000-0 0 20340
2 79960 018.5779 337.4884 8092845 280.6853 208.2070 00.46177348    04

# Worst residual: 9.05 km
# MJD 59309.000000 (2021 Apr  5  0:00)
UR29394 = C6ZAK42 = C4CJND2 = bit from 1969-046F
1 79960U 23999ZZK 21095.49919926  .00000000  00000-0  00000-0 0 20341
2 79960 018.5795 337.4727 8092747 280.7253 014.4025 00.46178225    06

# Worst residual: 2.57 km
# MJD 59310.000000 (2021 Apr  6  0:00)
UR29394 = C6ZAK42 = C4CJND2 = bit from 1969-046F
1 79960U 23999ZZK 21096.49919926  .00000000  00000-0  00000-0 0 20342
2 79960 018.5754 337.4680 8093748 280.7538 180.6032 00.46178665    09

# Worst residual: 4.94 km
# MJD 59311.000000 (2021 Apr  7  0:00)
UR29394 = C6ZAK42 = C4CJND2 = bit from 1969-046F
1 79960U 23999ZZK 21097.49919926  .00000000  00000-0  00000-0 0 20343
2 79960 018.5755 337.4606 8092481 280.7890 346.7711 00.46194389    02

# Worst residual: 1.13 km
# MJD 59312.000000 (2021 Apr  8  0:00)
UR29394 = C6ZAK42 = C4CJND2 = bit from 1969-046F
1 79960U 23999ZZK 21098.49919926  .00000000  00000-0  00000-0 0 20344
2 79960 018.5714 337.4620 8094028 280.8112 152.9805 00.46184392    04

# Worst residual: 11.66 km
# MJD 59313.000000 (2021 Apr  9  0:00)
UR29394 = C6ZAK42 = C4CJND2 = bit from 1969-046F
1 79960U 23999ZZK 21099.49919926  .00000000  00000-0  00000-0 0 20345
2 79960 018.5682 337.4834 8091588 280.8097 319.1709 00.46180446    01

# Worst residual: 3.66 km
# MJD 59314.000000 (2021 Apr 10  0:00)
UR29394 = C6ZAK42 = C4CJND2 = bit from 1969-046F
1 79960U 23999ZZK 21100.49919926  .00000000  00000-0  00000-0 0 20348
2 79960 018.5642 337.4731 8093444 280.8372 125.3758 00.46188402    03

# Worst residual: 5.38 km
# MJD 59315.000000 (2021 Apr 11  0:00)
UR29394 = C6ZAK42 = C4CJND2 = bit from 1969-046F
1 79960U 23999ZZK 21101.49919926  .00000000  00000-0  00000-0 0 20349
2 79960 018.5584 337.5160 8091369 280.8033 291.6428 00.46170718    05

# Worst residual: 8.70 km
# MJD 59316.000000 (2021 Apr 12  0:00)
UR29394 = C6ZAK42 = C4CJND2 = bit from 1969-046F
1 79960U 23999ZZK 21102.49919926  .00000000  00000-0  00000-0 0 20340
2 79960 018.5566 337.4842 8092688 280.8541 097.8238 00.46178493    03

# Worst residual: 12.88 km
# MJD 59317.000000 (2021 Apr 13  0:00)
UR29394 = C6ZAK42 = C4CJND2 = bit from 1969-046F
1 79960U 23999ZZK 21103.49919926  .00000000  00000-0  00000-0 0 20341
2 79960 018.5528 337.5041 8094351 280.8444 264.0707 00.46175310    08

# Worst residual: 5.96 km
# MJD 59318.000000 (2021 Apr 14  0:00)
UR29394 = C6ZAK42 = C4CJND2 = bit from 1969-046F
1 79960U 23999ZZK 21104.49919926  .00000000  00000-0  00000-0 0 20342
2 79960 018.5525 337.4834 8095488 280.9003 070.2641 00.46164934    02

# Worst residual: 5.73 km
# MJD 59319.000000 (2021 Apr 15  0:00)
UR29394 = C6ZAK42 = C4CJND2 = bit from 1969-046F
1 79960U 23999ZZK 21105.49919926  .00000000  00000-0  00000-0 0 20343
2 79960 018.5484 337.5075 8098623 280.9005 236.3875 00.46170724    08

# Worst residual: 13.84 km
# MJD 59320.000000 (2021 Apr 16  0:00)
UR29394 = C6ZAK42 = C4CJND2 = bit from 1969-046F
1 79960U 23999ZZK 21106.49919926  .00000000  00000-0  00000-0 0 20344
2 79960 018.5486 337.5014 8101059 280.9494 042.5981 00.46167551    02

# Worst residual: 4.47 km
# MJD 59321.000000 (2021 Apr 17  0:00)
UR29394 = C6ZAK42 = C4CJND2 = bit from 1969-046F
1 79960U 23999ZZK 21107.49919926  .00000000  00000-0  00000-0 0 20345
2 79960 018.5437 337.5585 8099563 280.9350 208.7140 00.46160179    00

# Worst residual: 13.14 km
# MJD 59322.000000 (2021 Apr 18  0:00)
UR29394 = C6ZAK42 = C4CJND2 = bit from 1969-046F
1 79960U 23999ZZK 21108.49919926  .00000000  00000-0  00000-0 0 20346
2 79960 018.5385 337.5860 8100688 280.9498 014.8582 00.46165976    08
